{"type": "FeatureCollection", "features": [ {"type": "Feature", "properties": {"norad_id": 66367, "name": "STARLINK-35846", "group": "last-30-days", "lat": 43.17296640183649, "lon": 84.32151483497817, "alt_km": 403.7891094502129, "timestamp": "2025-12-05T22:40:47.340199+00:00", "meta": {"OBJECT_NAME": "STARLINK-35846", "OBJECT_ID": "2025-254V", "EPOCH": "2025-12-05T06:00:02.000160", "MEAN_MOTION": 15.55247615, "ECCENTRICITY": 0.00015418, "INCLINATION": 53.1595, "RA_OF_ASC_NODE": 312.3661, "ARG_OF_PERICENTER": 95.0837, "MEAN_ANOMALY": 96.742, "EPHEMERIS_TYPE": 0, "CLASSIFICATION_TYPE": "U", "NORAD_CAT_ID": 66367, "ELEMENT_SET_NO": 999, "REV_AT_EPOCH": 567, "BSTAR": -0.034138764, "MEAN_MOTION_DOT": -0.02093192, "MEAN_MOTION_DDOT": 0}, "tle": {"line1": "1 66367U 25254V   25339.25002315 -.02093192  00000+0 -34139-1 0  9994", "line2": "2 66367  53.1595 312.3661 0001541  95.0837  96.7420 15.55247615  5670"}}, "geometry": {"type": "Point", "coordinates": [84.32151483497817, 43.17296640183649]}}, {"type": "Feature", "properties": {"norad_id": 66368, "name": "STARLINK-34861", "group": "last-30-days", "lat": -29.130659911367154, "lon": -76.09176353068585, "alt_km": 349.9927140698419, "timestamp": "2025-12-05T22:40:47.340209+00:00", "meta": {"OBJECT_NAME": "STARLINK-34861", "OBJECT_ID": "2025-254W", "EPOCH": "2025-12-04T19:24:47.965536", "MEAN_MOTION": 15.74136334, "ECCENTRICITY": 8.152e-05, "INCLINATION": 53.1575, "RA_OF_ASC_NODE": 314.2484, "ARG_OF_PERICENTER": 42.9884, "MEAN_ANOMALY": 317.12, "EPHEMERIS_TYPE": 0, "CLASSIFICATION_TYPE": "U", "NORAD_CAT_ID": 66368, "ELEMENT_SET_NO": 999, "REV_AT_EPOCH": 443, "BSTAR": 0.000865279, "MEAN_MOTION_DOT": 0.00127738, "MEAN_MOTION_DDOT": 0}, "tle": {"line1": "1 66368U 25254W   25338.80888849  .00127738  00000+0  86528-3 0  9990", "line2": "2 66368  53.1575 314.2484 0000815  42.9884 317.1200 15.74136334  4434"}}, "geometry": {"type": "Point", "coordinates": [-76.09176353068585, -29.130659911367154]}}, {"type": "Feature", "properties": {"norad_id": 66369, "name": "STARLINK-35795", "group": "last-30-days", "lat": -27.0776287143676, "lon": -73.93892311126591, "alt_km": 348.6544324749102, "timestamp": "2025-12-05T22:40:47.340222+00:00", "meta": {"OBJECT_NAME": "STARLINK-35795", "OBJECT_ID": "2025-254X", "EPOCH": "2025-12-04T02:39:36.815328", "MEAN_MOTION": 15.74349696, "ECCENTRICITY": 0.00030446, "INCLINATION": 53.1567, "RA_OF_ASC_NODE": 317.7168, "ARG_OF_PERICENTER": 147.1731, "MEAN_ANOMALY": 212.9479, "EPHEMERIS_TYPE": 0, "CLASSIFICATION_TYPE": "U", "NORAD_CAT_ID": 66369, "ELEMENT_SET_NO": 999, "REV_AT_EPOCH": 432, "BSTAR": 0.0021458163, "MEAN_MOTION_DOT": 0.00328479, "MEAN_MOTION_DDOT": 0}, "tle": {"line1": "1 66369U 25254X   25338.11084277  .00328479  00000+0  21458-2 0  9993", "line2": "2 66369  53.1567 317.7168 0003044 147.1731 212.9479 15.74349696  4324"}}, "geometry": {"type": "Point", "coordinates": [-73.93892311126591, -27.0776287143676]}}, {"type": "Feature", "properties": {"norad_id": 66370, "name": "STARLINK-35824", "group": "last-30-days", "lat": -26.65302550371466, "lon": -73.50489219207314, "alt_km": 351.5754126414895, "timestamp": "2025-12-05T22:40:47.340233+00:00", "meta": {"OBJECT_NAME": "STARLINK-35824", "OBJECT_ID": "2025-254Y", "EPOCH": "2025-12-05T07:35:12.725664", "MEAN_MOTION": 15.74416564, "ECCENTRICITY": 2.907e-05, "INCLINATION": 53.1572, "RA_OF_ASC_NODE": 311.7243, "ARG_OF_PERICENTER": 144.1395, "MEAN_ANOMALY": 215.9645, "EPHEMERIS_TYPE": 0, "CLASSIFICATION_TYPE": "U", "NORAD_CAT_ID": 66370, "ELEMENT_SET_NO": 999, "REV_AT_EPOCH": 451, "BSTAR": -0.0027617074, "MEAN_MOTION_DOT": -0.00390695, "MEAN_MOTION_DDOT": 0}, "tle": {"line1": "1 66370U 25254Y   25339.31611951 -.00390695  00000+0 -27617-2 0  9997", "line2": "2 66370  53.1572 311.7243 0000290 144.1395 215.9645 15.74416564  4511"}}, "geometry": {"type": "Point", "coordinates": [-73.50489219207314, -26.65302550371466]}}, {"type": "Feature", "properties": {"norad_id": 66371, "name": "STARLINK-35804", "group": "last-30-days", "lat": -25.03448339320975, "lon": -71.90211549802537, "alt_km": 350.21713633417494, "timestamp": "2025-12-05T22:40:47.340243+00:00", "meta": {"OBJECT_NAME": "STARLINK-35804", "OBJECT_ID": "2025-254Z", "EPOCH": "2025-12-05T00:00:02.999808", "MEAN_MOTION": 15.74124594, "ECCENTRICITY": 0.00011956, "INCLINATION": 53.158, "RA_OF_ASC_NODE": 313.2878, "ARG_OF_PERICENTER": 90.6735, "MEAN_ANOMALY": 278.9415, "EPHEMERIS_TYPE": 0, "CLASSIFICATION_TYPE": "U", "NORAD_CAT_ID": 66371, "ELEMENT_SET_NO": 999, "REV_AT_EPOCH": 567, "BSTAR": 0.0010837698, "MEAN_MOTION_DOT": 0.00160705, "MEAN_MOTION_DDOT": 0}, "tle": {"line1": "1 66371U 25254Z   25339.00003472  .00160705  00000+0  10838-2 0  9999", "line2": "2 66371  53.1580 313.2878 0001195  90.6735 278.9415 15.74124594  5671"}}, "geometry": {"type": "Point", "coordinates": [-71.90211549802537, -25.03448339320975]}}, {"type": "Feature", "properties": {"norad_id": 66372, "name": "STARLINK-35821", "group": "last-30-days", "lat": -22.637683019684133, "lon": -69.63087057531052, "alt_km": 345.5922880305625, "timestamp": "2025-12-05T22:40:47.340253+00:00", "meta": {"OBJECT_NAME": "STARLINK-35821", "OBJECT_ID": "2025-254AA", "EPOCH": "2025-12-04T10:15:15.064416", "MEAN_MOTION": 15.7441561, "ECCENTRICITY": 0.0001567, "INCLINATION": 53.1569, "RA_OF_ASC_NODE": 316.1358, "ARG_OF_PERICENTER": 64.6576, "MEAN_ANOMALY": 295.4606, "EPHEMERIS_TYPE": 0, "CLASSIFICATION_TYPE": "U", "NORAD_CAT_ID": 66372, "ELEMENT_SET_NO": 999, "REV_AT_EPOCH": 437, "BSTAR": 0.0030875, "MEAN_MOTION_DOT": 0.00483155, "MEAN_MOTION_DDOT": 0}, "tle": {"line1": "1 66372U 25254AA  25338.42725769  .00483155  00000+0  30875-2 0  9995", "line2": "2 66372  53.1569 316.1358 0001567  64.6576 295.4606 15.74415610  4375"}}, "geometry": {"type": "Point", "coordinates": [-69.63087057531052, -22.637683019684133]}}, {"type": "Feature", "properties": {"norad_id": 66373, "name": "STARLINK-35809", "group": "last-30-days", "lat": -23.223172155066365, "lon": -70.17691355034948, "alt_km": 349.4089238328552, "timestamp": "2025-12-05T22:40:47.340264+00:00", "meta": {"OBJECT_NAME": "STARLINK-35809", "OBJECT_ID": "2025-254AB", "EPOCH": "2025-12-04T23:57:08.527104", "MEAN_MOTION": 15.74162628, "ECCENTRICITY": 0.00011507, "INCLINATION": 53.1573, "RA_OF_ASC_NODE": 313.293, "ARG_OF_PERICENTER": 93.3239, "MEAN_ANOMALY": 266.7912, "EPHEMERIS_TYPE": 0, "CLASSIFICATION_TYPE": "U", "NORAD_CAT_ID": 66373, "ELEMENT_SET_NO": 999, "REV_AT_EPOCH": 446, "BSTAR": 0.0017555622, "MEAN_MOTION_DOT": 0.00264408, "MEAN_MOTION_DDOT": 0}, "tle": {"line1": "1 66373U 25254AB  25338.99801536  .00264408  00000+0  17556-2 0  9994", "line2": "2 66373  53.1573 313.2930 0001150  93.3239 266.7912 15.74162628  4467"}}, "geometry": {"type": "Point", "coordinates": [-70.17691355034948, -23.223172155066365]}}, {"type": "Feature", "properties": {"norad_id": 66374, "name": "STARLINK-35831", "group": "last-30-days", "lat": -21.864597176127397, "lon": -68.92179620379788, "alt_km": 349.12720906461254, "timestamp": "2025-12-05T22:40:47.340274+00:00", "meta": {"OBJECT_NAME": "STARLINK-35831", "OBJECT_ID": "2025-254AC", "EPOCH": "2025-12-05T04:30:56.234304", "MEAN_MOTION": 15.74184186, "ECCENTRICITY": 9.866e-05, "INCLINATION": 53.1576, "RA_OF_ASC_NODE": 312.3471, "ARG_OF_PERICENTER": 94.6782, "MEAN_ANOMALY": 265.4351, "EPHEMERIS_TYPE": 0, "CLASSIFICATION_TYPE": "U", "NORAD_CAT_ID": 66374, "ELEMENT_SET_NO": 999, "REV_AT_EPOCH": 449, "BSTAR": 0.0022573018, "MEAN_MOTION_DOT": 0.00343742, "MEAN_MOTION_DDOT": 0}, "tle": {"line1": "1 66374U 25254AC  25339.18815086  .00343742  00000+0  22573-2 0  9996", "line2": "2 66374  53.1576 312.3471 0000986  94.6782 265.4351 15.74184186  4493"}}, "geometry": {"type": "Point", "coordinates": [-68.92179620379788, -21.864597176127397]}}, {"type": "Feature", "properties": {"norad_id": 66375, "name": "STARLINK-35826", "group": "last-30-days", "lat": -19.55335977474283, "lon": -66.86290565923807, "alt_km": 348.86089266833187, "timestamp": "2025-12-05T22:40:47.340284+00:00", "meta": {"OBJECT_NAME": "STARLINK-35826", "OBJECT_ID": "2025-254AD", "EPOCH": "2025-12-05T01:27:35.768160", "MEAN_MOTION": 15.74369654, "ECCENTRICITY": 0.00027637, "INCLINATION": 53.1573, "RA_OF_ASC_NODE": 312.9744, "ARG_OF_PERICENTER": 186.5703, "MEAN_ANOMALY": 173.5282, "EPHEMERIS_TYPE": 0, "CLASSIFICATION_TYPE": "U", "NORAD_CAT_ID": 66375, "ELEMENT_SET_NO": 999, "REV_AT_EPOCH": 447, "BSTAR": 0.002728124, "MEAN_MOTION_DOT": 0.00422905, "MEAN_MOTION_DDOT": 0}, "tle": {"line1": "1 66375U 25254AD  25339.06083065  .00422905  00000+0  27281-2 0  9998", "line2": "2 66375  53.1573 312.9744 0002763 186.5703 173.5282 15.74369654  4474"}}, "geometry": {"type": "Point", "coordinates": [-66.86290565923807, -19.55335977474283]}}, {"type": "Feature", "properties": {"norad_id": 66376, "name": "SHIYAN-32 01", "group": "last-30-days", "lat": -24.498759344947892, "lon": -169.72172912401277, "alt_km": 436.6906401695014, "timestamp": "2025-12-05T22:40:47.340294+00:00", "meta": {"OBJECT_NAME": "SHIYAN-32 01", "OBJECT_ID": "2025-255A", "EPOCH": "2025-12-05T18:08:58.191648", "MEAN_MOTION": 15.42436726, "ECCENTRICITY": 0.0013509, "INCLINATION": 52.9952, "RA_OF_ASC_NODE": 211.2776, "ARG_OF_PERICENTER": 20.546, "MEAN_ANOMALY": 339.6085, "EPHEMERIS_TYPE": 0, "CLASSIFICATION_TYPE": "U", "NORAD_CAT_ID": 66376, "ELEMENT_SET_NO": 999, "REV_AT_EPOCH": 427, "BSTAR": 0.00061221, "MEAN_MOTION_DOT": 0.0002665, "MEAN_MOTION_DDOT": 0}, "tle": {"line1": "1 66376U 25255A   25339.75622907  .00026650  00000+0  61221-3 0  9990", "line2": "2 66376  52.9952 211.2776 0013509  20.5460 339.6085 15.42436726  4270"}}, "geometry": {"type": "Point", "coordinates": [-169.72172912401277, -24.498759344947892]}}]}